[{"OBJECT_NAME":"GEESAT-1 07","OBJECT_ID":"2022-058G","EPOCH":"2026-03-09T22:03:59.499360","MEAN_MOTION":14.81010409,"ECCENTRICITY":0.0013079,"INCLINATION":49.9882,"RA_OF_ASC_NODE":299.8665,"ARG_OF_PERICENTER":75.3998,"MEAN_ANOMALY":284.8389,"EPHEMERIS_TYPE":0,"CLASSIFICATION_TYPE":"U","NORAD_CAT_ID":52791,"ELEMENT_SET_NO":999,"REV_AT_EPOCH":20521,"BSTAR":0.0003741149,"MEAN_MOTION_DOT":2.71e-5,"MEAN_MOTION_DDOT":0},{"OBJECT_NAME":"CZ-6A DEB","OBJECT_ID":"2022-151EL","EPOCH":"2026-03-09T12:09:26.951616","MEAN_MOTION":14.86893831,"ECCENTRICITY":0.00944101,"INCLINATION":98.6325,"RA_OF_ASC_NODE":168.3306,"ARG_OF_PERICENTER":70.5159,"MEAN_ANOMALY":290.6224,"EPHEMERIS_TYPE":0,"CLASSIFICATION_TYPE":"U","NORAD_CAT_ID":54412,"ELEMENT_SET_NO":999,"REV_AT_EPOCH":17774,"BSTAR":0.0014840705,"MEAN_MOTION_DOT":0.00014338,"MEAN_MOTION_DDOT":0}]
